[{"OBJECT_NAME":"ONEWEB-0569","OBJECT_ID":"2023-004J","EPOCH":"2026-03-09T17:58:10.125120","MEAN_MOTION":13.13470288,"ECCENTRICITY":0.00025187,"INCLINATION":87.9046,"RA_OF_ASC_NODE":339.9936,"ARG_OF_PERICENTER":93.2896,"MEAN_ANOMALY":266.8521,"EPHEMERIS_TYPE":0,"CLASSIFICATION_TYPE":"U","NORAD_CAT_ID":55148,"ELEMENT_SET_NO":999,"REV_AT_EPOCH":15712,"BSTAR":0.00062117942,"MEAN_MOTION_DOT":2.4e-6,"MEAN_MOTION_DDOT":0},{"OBJECT_NAME":"CZ-4C DEB","OBJECT_ID":"2015-040D","EPOCH":"2026-03-08T09:58:09.156864","MEAN_MOTION":13.22572388,"ECCENTRICITY":0.01417404,"INCLINATION":100.1866,"RA_OF_ASC_NODE":142.2067,"ARG_OF_PERICENTER":40.5742,"MEAN_ANOMALY":320.5838,"EPHEMERIS_TYPE":0,"CLASSIFICATION_TYPE":"U","NORAD_CAT_ID":43425,"ELEMENT_SET_NO":999,"REV_AT_EPOCH":50722,"BSTAR":0.00033161309,"MEAN_MOTION_DOT":1.03e-6,"MEAN_MOTION_DDOT":0}]
